NORAD_CAT_ID,OBJECT_NAME,OBJECT_TYPE,EPOCH,MEAN_MOTION,ECCENTRICITY,INCLINATION,RA_OF_ASC_NODE,ARG_OF_PERICENTER,MEAN_ANOMALY,BSTAR,MEAN_MOTION_DOT,MEAN_MOTION_DDOT,TLE_LINE0,TLE_LINE1,TLE_LINE2,SEMIMAJOR_AXIS,PERIOD,APOGEE,PERIGEE,DECAYED
52641.0,STARLINK-3991,PAYLOAD,2023-06-21 20:22:10,15.08837763,0.0001088,53.2179,31.6664,94.6333,265.4783,-1.8697e-05,-5.85e-06,0.0,0 STARLINK-3991,1 52641U 22052AV  23172.84873842 -.00000585  00000-0 -18697-4 0  9993,2 52641  53.2179  31.6664 0001088  94.6333 265.4783 15.08837763 61402,6917.887,95.438,540.505,539.0,0.0
52641.0,STARLINK-3991,PAYLOAD,2023-06-21 23:32:57,15.08841275,0.0001123,53.2183,31.0709,82.4007,277.7113,2.4877e-06,-2.48e-06,0.0,0 STARLINK-3991,1 52641U 22052AV  23172.98121593 -.00000248  00000-0  24877-5 0  9990,2 52641  53.2183  31.0709 0001123  82.4007 277.7113 15.08841275 61792,6917.876,95.437,540.518,538.965,0.0
52641.0,STARLINK-3991,PAYLOAD,2023-06-23 07:20:39,15.08842957,0.0001072,53.2178,25.1266,90.3514,269.7601,3.0205e-05,1.93e-06,0.0,0 STARLINK-3991,1 52641U 22052AV  23174.30601539  .00000193  00000-0  30205-4 0  9990,2 52641  53.2178  25.1266 0001072  90.3514 269.7601 15.08842957 61995,6917.871,95.437,540.478,538.995,0.0
52641.0,STARLINK-3991,PAYLOAD,2023-06-24 00:49:53,15.08850766,0.0001121,53.2178,21.8536,86.9077,273.2043,0.00014027,1.946e-05,0.0,0 STARLINK-3991,1 52641U 22052AV  23175.03464843  .00001946  00000-0  14027-3 0  9996,2 52641  53.2178  21.8536 0001121  86.9077 273.2043 15.08850766 62109,6917.847,95.437,540.488,538.937,0.0
52641.0,STARLINK-3991,PAYLOAD,2023-06-24 07:11:27,15.08837403,0.0001204,53.2178,20.6658,80.2437,279.8691,2.1528e-05,5.5e-07,0.0,0 STARLINK-3991,1 52641U 22052AV  23175.29962060  .00000055  00000-0  21528-4 0  9993,2 52641  53.2178  20.6658 0001204  80.2437 279.8691 15.08837403 62148,6917.888,95.438,540.586,538.92,0.0
52641.0,STARLINK-3991,PAYLOAD,2023-06-24 21:29:54,15.08846182,0.000117,53.2176,17.9873,90.5261,269.5865,5.8549e-05,6.44e-06,0.0,0 STARLINK-3991,1 52641U 22052AV  23175.89577411  .00000644  00000-0  58549-4 0  9998,2 52641  53.2176  17.9873 0001170  90.5261 269.5865 15.08846182 62238,6917.861,95.437,540.536,538.917,0.0
52641.0,STARLINK-3991,PAYLOAD,2023-06-25 16:34:33,15.08836029,0.0001188,53.2175,14.4192,89.8173,270.2955,2.5911e-05,1.25e-06,0.0,0 STARLINK-3991,1 52641U 22052AV  23176.69066162  .00000125  00000-0  25911-4 0  9994,2 52641  53.2175  14.4192 0001188  89.8173 270.2955 15.08836029 62356,6917.893,95.438,540.579,538.936,0.0
52641.0,STARLINK-3991,PAYLOAD,2023-06-25 22:56:05,15.08846036,0.0001231,53.2185,13.2269,102.6566,257.4563,4.2816e-06,-2.2e-06,0.0,0 STARLINK-3991,1 52641U 22052AV  23176.95561516 -.00000220  00000-0  42816-5 0  9997,2 52641  53.2185  13.2269 0001231 102.6566 257.4563 15.08846036 62393,6917.862,95.437,540.579,538.875,0.0
52641.0,STARLINK-3991,PAYLOAD,2023-06-26 16:25:20,15.08833953,0.0001399,53.2184,9.9553,105.7888,254.3258,5.4503e-06,-2.01e-06,0.0,0 STARLINK-3991,1 52641U 22052AV  23177.68426465 -.00000201  00000-0  54503-5 0  9996,2 52641  53.2184   9.9553 0001399 105.7888 254.3258 15.08833953 62500,6917.899,95.438,540.732,538.796,0.0
52641.0,STARLINK-3991,PAYLOAD,2023-06-27 19:26:53,15.08845742,0.0001061,53.2178,4.9042,85.4629,274.6484,9.1725e-05,1.173e-05,0.0,0 STARLINK-3991,1 52641U 22052AV  23178.81033839  .00001173  00000-0  91725-4 0  9995,2 52641  53.2178   4.9042 0001061  85.4629 274.6484 15.08845742 62677,6917.863,95.437,540.462,538.994,0.0
52641.0,STARLINK-3991,PAYLOAD,2023-06-28 04:59:12,15.0883919,0.0001061,53.2178,3.1188,82.2322,277.879,1.8743e-05,1.1e-07,0.0,0 STARLINK-3991,1 52641U 22052AV  23179.20778317  .00000011  00000-0  18743-4 0  9995,2 52641  53.2178   3.1188 0001061  82.2322 277.8790 15.08839190 62736,6917.883,95.438,540.482,539.014,0.0
52641.0,STARLINK-3991,PAYLOAD,2023-06-28 17:42:18,15.088337,0.0001157,53.2184,0.7404,80.87,279.2423,2.975e-05,1.86e-06,0.0,0 STARLINK-3991,1 52641U 22052AV  23179.73771031  .00000186  00000-0  29750-4 0  9992,2 52641  53.2184   0.7404 0001157  80.8700 279.2423 15.08833700 62816,6917.9,95.438,540.565,538.964,0.0
52641.0,STARLINK-3991,PAYLOAD,2023-06-29 19:08:27,15.08842289,0.0001085,53.219,355.9834,83.3111,276.8005,4.5662e-05,4.39e-06,0.0,0 STARLINK-3991,1 52641U 22052AV  23180.79754570  .00000439  00000-0  45662-4 0  9990,2 52641  53.2190 355.9834 0001085  83.3111 276.8005 15.08842289 62977,6917.873,95.437,540.489,538.988,0.0
52641.0,STARLINK-3991,PAYLOAD,2023-07-01 04:31:33,15.08842201,0.0001098,53.2184,349.7397,81.9332,278.1785,4.9823e-05,5.05e-06,0.0,0 STARLINK-3991,1 52641U 22052AV  23182.18858510  .00000505  00000-0  49823-4 0  9991,2 52641  53.2184 349.7397 0001098  81.9332 278.1785 15.08842201 63186,6917.874,95.437,540.498,538.979,0.0
52641.0,STARLINK-3991,PAYLOAD,2023-07-02 04:22:21,15.08838084,9.47e-05,53.218,345.2781,90.4069,269.7032,8.7574e-06,-1.48e-06,0.0,0 STARLINK-3991,1 52641U 22052AV  23183.18218889 -.00000148  00000-0  87574-5 0  9991,2 52641  53.2180 345.2781 0000947  90.4069 269.7032 15.08838084 63336,6917.886,95.438,540.406,539.096,0.0
52641.0,STARLINK-3991,PAYLOAD,2023-07-03 10:34:40,15.08838698,9.98e-05,53.2181,339.6289,87.2366,272.8741,7.2069e-05,8.59e-06,0.0,0 STARLINK-3991,1 52641U 22052AV  23184.44074629  .00000859  00000-0  72069-4 0  9993,2 52641  53.2181 339.6289 0000998  87.2366 272.8741 15.08838698 63521,6917.884,95.438,540.44,539.059,0.0
52641.0,STARLINK-3991,PAYLOAD,2023-07-04 16:47:00,15.08838955,0.0001051,53.2182,333.9782,89.6388,270.4724,2.6621e-05,1.36e-06,0.0,0 STARLINK-3991,1 52641U 22052AV  23185.69930847  .00000136  00000-0  26621-4 0  9995,2 52641  53.2182 333.9782 0001051  89.6388 270.4724 15.08838955 63710,6917.884,95.438,540.476,539.022,0.0
52641.0,STARLINK-3991,PAYLOAD,2023-07-06 02:10:06,15.0883877,9.85e-05,53.2173,327.7337,83.9785,276.1319,2.8856e-05,1.72e-06,0.0,0 STARLINK-3991,1 52641U 22052AV  23187.09035046  .00000172  00000-0  28856-4 0  9990,2 52641  53.2173 327.7337 0000985  83.9785 276.1319 15.08838770 63921,6917.884,95.438,540.431,539.068,0.0
52641.0,STARLINK-3991,PAYLOAD,2023-07-07 16:19:21,15.0884745,9.89e-05,53.218,320.5984,106.5904,253.5197,9.5225e-05,1.228e-05,0.0,0 STARLINK-3991,1 52641U 22052AV  23188.68010677  .00001228  00000-0  95225-4 0  9996,2 52641  53.2180 320.5984 0000989 106.5904 253.5197 15.08847450 64162,6917.858,95.437,540.407,539.038,0.0
52641.0,STARLINK-3991,PAYLOAD,2023-07-08 08:13:13,15.08835882,9.8e-05,53.2181,317.6239,90.8722,269.2383,4.1067e-05,3.66e-06,0.0,0 STARLINK-3991,1 52641U 22052AV  23189.34251472  .00000366  00000-0  41067-4 0  9997,2 52641  53.2181 317.6239 0000980  90.8722 269.2383 15.08835882 64265,6917.893,95.438,540.436,539.08,0.0
52641.0,STARLINK-3991,PAYLOAD,2023-07-08 17:45:31,15.08845416,9.45e-05,53.218,315.8391,83.8394,276.2705,6.7326e-05,7.84e-06,0.0,0 STARLINK-3991,1 52641U 22052AV  23189.73994805  .00000784  00000-0  67326-4 0  9994,2 52641  53.2180 315.8391 0000945  83.8394 276.2705 15.08845416 64328,6917.864,95.437,540.383,539.075,0.0
52641.0,STARLINK-3991,PAYLOAD,2023-07-09 01:42:28,15.0883528,0.0001057,53.2179,314.3526,84.8842,275.2271,-2.1777e-06,-3.22e-06,0.0,0 STARLINK-3991,1 52641U 22052AV  23190.07115765 -.00000322  00000-0 -21777-5 0  9994,2 52641  53.2179 314.3526 0001057  84.8842 275.2271 15.08835280 64374,6917.895,95.438,540.491,539.029,0.0
52641.0,STARLINK-3991,PAYLOAD,2023-07-10 15:51:42,15.0884887,0.0001008,53.218,307.2152,86.0824,274.0283,0.00011509,1.545e-05,0.0,0 STARLINK-3991,1 52641U 22052AV  23191.66090713  .00001545  00000-0  11509-3 0  9991,2 52641  53.2180 307.2152 0001008  86.0824 274.0283 15.08848870 64618,6917.853,95.437,540.416,539.021,0.0
52641.0,STARLINK-3991,PAYLOAD,2023-07-11 07:45:34,15.08837594,0.0001153,53.2183,304.2406,91.9138,268.1986,0.00012392,1.685e-05,0.0,0 STARLINK-3991,1 52641U 22052AV  23192.32331363  .00001685  00000-0  12392-3 0  9990,2 52641  53.2183 304.2406 0001153  91.9138 268.1986 15.08837594 64710,6917.888,95.438,540.55,538.955,0.0
52641.0,STARLINK-3991,PAYLOAD,2023-07-12 17:08:39,15.08848525,0.0001069,53.2176,297.9982,85.7011,274.4103,5.6814e-06,-1.97e-06,0.0,0 STARLINK-3991,1 52641U 22052AV  23193.71434908 -.00000197  00000-0  56814-5 0  9990,2 52641  53.2176 297.9982 0001069  85.7011 274.4103 15.08848525 64926,6917.854,95.437,540.459,538.98,0.0
52641.0,STARLINK-3991,PAYLOAD,2023-07-13 13:48:41,15.08837678,0.0001123,53.2177,294.1333,96.1464,263.9656,-5.1191e-06,-3.69e-06,0.0,0 STARLINK-3991,1 52641U 22052AV  23194.57547783 -.00000369  00000-0 -51191-5 0  9996,2 52641  53.2177 294.1333 0001123  96.1464 263.9656 15.08837678 65053,6917.887,95.438,540.529,538.976,0.0
52641.0,STARLINK-3991,PAYLOAD,2023-07-14 23:11:46,15.08852883,0.0001185,53.2178,287.889,97.2775,262.8352,-0.00015276,-2.719e-05,0.0,0 STARLINK-3991,1 52641U 22052AV  23195.96651534 -.00002719  00000-0 -15276-3 0  9993,2 52641  53.2178 287.8890 0001185  97.2775 262.8352 15.08852883 65265,6917.841,95.437,540.526,538.886,0.0
52641.0,STARLINK-3991,PAYLOAD,2023-07-15 11:54:52,15.08839104,0.0001208,53.2178,285.5103,93.1046,267.0084,0.00011088,1.477e-05,0.0,0 STARLINK-3991,1 52641U 22052AV  23196.49644081  .00001477  00000-0  11088-3 0  9996,2 52641  53.2178 285.5103 0001208  93.1046 267.0084 15.08839104 65348,6917.883,95.438,540.584,538.912,0.0
52641.0,STARLINK-3991,PAYLOAD,2023-07-16 05:24:07,15.0883399,0.0001164,53.2172,282.2391,88.6258,271.4868,7.1791e-05,8.55e-06,0.0,0 STARLINK-3991,1 52641U 22052AV  23197.22508608  .00000855  00000-0  71791-4 0  9999,2 52641  53.2172 282.2391 0001164  88.6258 271.4868 15.08833990 65458,6917.899,95.438,540.569,538.959,0.0
52641.0,STARLINK-3991,PAYLOAD,2023-07-17 11:36:26,15.08841917,0.0001049,53.2164,276.5874,88.9426,271.1686,0.00010096,1.319e-05,0.0,0 STARLINK-3991,1 52641U 22052AV  23198.48364186  .00001319  00000-0  10096-3 0  9995,2 52641  53.2164 276.5874 0001049  88.9426 271.1686 15.08841917 65647,6917.875,95.437,540.465,539.014,0.0
